OBJECT_NAME,OBJECT_ID,EPOCH,MEAN_MOTION,ECCENTRICITY,INCLINATION,RA_OF_ASC_NODE,ARG_OF_PERICENTER,MEAN_ANOMALY,EPHEMERIS_TYPE,CLASSIFICATION_TYPE,NORAD_CAT_ID,ELEMENT_SET_NO,REV_AT_EPOCH,BSTAR,MEAN_MOTION_DOT,MEAN_MOTION_DDOT
STARLINK-4685,2022-107K,2026-02-07T04:30:51.492672,15.08841136,.0001516,53.2186,25.7399,111.7325,248.3828,0,U,53709,999,18987,.24808996E-4,.107E-5,0
STARLINK-4627,2022-107M,2026-02-07T07:57:33.265728,15.08838336,.00013217,53.2185,25.2090,80.5101,279.6040,0,U,53711,999,18989,.6770531E-4,.79E-5,0
STARLINK-4683,2022-107N,2026-02-07T08:55:47.845056,15.08838071,.00013172,53.2197,24.7667,89.3915,270.7228,0,U,53712,999,18992,-.24077868E-4,-.671E-5,0
STARLINK-4686,2022-107R,2026-02-07T06:13:33.354048,15.08834487,.0001788,53.2190,30.4458,90.7716,269.3481,0,U,53715,999,18982,.18501E-3,.2657E-4,0
STARLINK-4699,2022-107S,2026-02-07T09:19:00.090336,15.08839943,.0001392,53.2189,29.8275,93.7773,266.3378,0,U,53716,999,18983,.52327482E-4,.545E-5,0
STARLINK-4695,2022-107U,2026-02-07T09:04:35.657472,15.08844613,.00014975,53.2188,30.4574,89.4087,270.7076,0,U,53718,999,18982,.12828846E-3,.1755E-4,0
STARLINK-4644,2022-107V,2026-02-07T04:20:54.681216,15.08837921,.00012397,53.2198,0.7018,89.7080,270.4055,0,U,53719,999,19023,.39772721E-4,.345E-5,0
STARLINK-4642,2022-107W,2026-02-07T09:29:36.963744,15.08835738,.00017431,53.2191,29.8747,91.6060,268.5131,0,U,53720,999,18984,.580012E-4,.635E-5,0
STARLINK-4707,2022-107X,2026-02-07T09:40:13.919232,15.08834848,.00014117,53.2182,29.9194,97.7014,262.4139,0,U,53721,999,18984,.45767596E-4,.44E-5,0
STARLINK-4700,2022-107Y,2026-02-07T06:40:04.083456,15.08843136,.0001305,53.2181,30.5581,90.3135,269.8007,0,U,53722,999,18981,.8355E-4,.1042E-4,0
STARLINK-4705,2022-107Z,2026-02-07T23:32:10.108320,15.08837377,.00015691,53.2183,27.1307,98.8365,261.2805,0,U,53723,999,19007,.36403019E-4,.291E-5,0
STARLINK-4663,2022-107AA,2026-02-07T04:48:45.891360,15.08835786,.00016036,53.2178,30.7855,92.2624,267.8552,0,U,53724,999,18981,-.4652676E-5,-.362E-5,0
STARLINK-4697,2022-107AC,2026-02-07T09:45:31.962816,15.08839955,.0001521,53.2175,29.9437,90.3806,269.7360,0,U,53726,999,18984,.10885117E-3,.1445E-4,0
STARLINK-4701,2022-107AD,2026-02-07T08:26:04.130880,15.08838244,.00013333,53.2186,30.3093,93.5639,266.5506,0,U,53727,999,18997,.7514543E-5,-.168E-5,0
STARLINK-4640,2022-107AE,2026-02-07T09:56:08.803392,15.08839472,.0001304,53.2190,29.9880,95.5581,264.5560,0,U,53728,999,18998,.86518454E-4,.1089E-4,0
STARLINK-4651,2022-107AF,2026-02-07T08:41:58.910496,15.08844962,.00015964,53.2174,30.3749,85.7525,274.3649,0,U,53729,999,19000,.13290849E-3,.1828E-4,0
STARLINK-4641,2022-107AG,2026-02-07T08:31:22.226304,15.08840418,.00014234,53.2187,30.3312,80.1795,279.9358,0,U,53730,999,18997,.63902966E-4,.729E-5,0
STARLINK-4636,2022-107AH,2026-02-07T09:50:27.469824,15.10651191,.00043198,53.2155,29.9635,60.6057,299.5367,0,U,53731,999,19001,.20934988E-2,.34904E-3,0
STARLINK-4661,2022-107AJ,2026-02-07T08:38:03.738336,15.08837177,.00015685,53.2188,30.3571,87.8133,272.3039,0,U,53732,999,18997,.31076267E-4,.207E-5,0
STARLINK-4574,2022-107AK,2026-02-07T05:47:07.996128,15.08837379,.0001535,53.2187,31.0368,90.9908,269.1260,0,U,53733,999,18998,.12837E-4,-.84E-6,0
STARLINK-4616,2022-107AL,2026-02-07T07:01:17.588352,15.08839752,.0001265,53.2180,30.6538,86.3894,273.7243,0,U,53734,999,18999,.43399E-4,.403E-5,0
STARLINK-4618,2022-107AM,2026-02-07T09:38:53.741760,15.08841953,.00014644,53.2182,39.8986,86.0162,274.0997,0,U,53735,999,18987,.51688675E-4,.535E-5,0
STARLINK-4652,2022-107AN,2026-02-07T08:52:35.519520,15.08843069,.00014396,53.2186,30.4193,93.0773,267.0384,0,U,53736,999,19000,.69257679E-4,.815E-5,0
STARLINK-4646,2022-107AP,2026-02-08T01:03:47.303136,16.10238777,.0007711,53.1788,323.4139,172.4900,187.6253,0,U,53737,999,19115,.23779E-2,.2181456E-1,.45599E-2
STARLINK-4662,2022-107AQ,2026-02-07T09:33:35.172000,15.08824669,.00010883,53.2175,39.8776,88.4690,271.6427,0,U,53738,999,18987,.91266878E-4,.1164E-4,0
STARLINK-4607,2022-107AS,2026-02-07T06:38:44.214432,15.08841852,.0001528,53.2181,40.5446,76.9551,283.1612,0,U,53740,999,19000,.13375E-4,-.75E-6,0
STARLINK-4637,2022-107AU,2026-02-07T06:44:02.563872,15.08839204,.0001262,53.2185,40.5658,100.9157,259.1977,0,U,53742,999,19000,.29537E-4,.182E-5,0
STARLINK-4645,2022-107AV,2026-02-07T05:29:52.983744,15.08837026,.0001416,53.2179,40.9517,96.4346,263.6807,0,U,53743,999,18999,.34813E-4,.266E-5,0
STARLINK-4670,2022-107AW,2026-02-07T23:30:50.655744,15.08838161,.00015247,53.2179,37.1165,82.2956,277.8210,0,U,53744,999,19011,.35401874E-4,.275E-5,0
STARLINK-4656,2022-107AX,2026-02-07T07:10:34.512384,15.08838652,.0001453,53.2182,40.6811,96.1394,263.9764,0,U,53745,999,19000,.12275E-4,-.93E-6,0
