STARLINK-4685           
1 53709U 22107K   26038.18809598  .00000107  00000+0  24809-4 0  9997
2 53709  53.2186  25.7399 0001516 111.7325 248.3828 15.08841136189874
STARLINK-4627           
1 53711U 22107M   26038.33163502  .00000790  00000+0  67705-4 0  9995
2 53711  53.2185  25.2090 0001321  80.5101 279.6040 15.08838336189891
STARLINK-4683           
1 53712U 22107N   26038.37208154 -.00000671  00000+0 -24078-4 0  9999
2 53712  53.2197  24.7667 0001317  89.3915 270.7228 15.08838071189924
STARLINK-4686           
1 53715U 22107R   26038.25941382  .00002657  00000+0  18501-3 0  9993
2 53715  53.2190  30.4458 0001788  90.7716 269.3481 15.08834487189820
STARLINK-4699           
1 53716U 22107S   26038.38819549  .00000545  00000+0  52327-4 0  9996
2 53716  53.2189  29.8275 0001392  93.7773 266.3378 15.08839943189830
STARLINK-4695           
1 53718U 22107U   26038.37819048  .00001755  00000+0  12829-3 0  9997
2 53718  53.2188  30.4574 0001497  89.4087 270.7076 15.08844613189820
STARLINK-4644           
1 53719U 22107V   26038.18118844  .00000345  00000+0  39773-4 0  9995
2 53719  53.2198   0.7018 0001239  89.7080 270.4055 15.08837921190230
STARLINK-4642           
1 53720U 22107W   26038.39556671  .00000635  00000+0  58001-4 0  9991
2 53720  53.2191  29.8747 0001743  91.6060 268.5131 15.08835738189848
STARLINK-4707           
1 53721U 22107X   26038.40293888  .00000440  00000+0  45768-4 0  9992
2 53721  53.2182  29.9194 0001411  97.7014 262.4139 15.08834848189846
STARLINK-4700           
1 53722U 22107Y   26038.27782504  .00001042  00000+0  83550-4 0  9996
2 53722  53.2181  30.5581 0001305  90.3135 269.8007 15.08843136189811
STARLINK-4705           
1 53723U 22107Z   26038.98067255  .00000291  00000+0  36403-4 0  9994
2 53723  53.2183  27.1307 0001569  98.8365 261.2805 15.08837377190074
STARLINK-4663           
1 53724U 22107AA  26038.20053115 -.00000362  00000+0 -46527-5 0  9990
2 53724  53.2178  30.7855 0001603  92.2624 267.8552 15.08835786189815
STARLINK-4697           
1 53726U 22107AC  26038.40661994  .00001445  00000+0  10885-3 0  9991
2 53726  53.2175  29.9437 0001521  90.3806 269.7360 15.08839955189843
STARLINK-4701           
1 53727U 22107AD  26038.35143670 -.00000168  00000+0  75145-5 0  9996
2 53727  53.2186  30.3093 0001333  93.5639 266.5506 15.08838244189971
STARLINK-4640           
1 53728U 22107AE  26038.41399078  .00001089  00000+0  86518-4 0  9996
2 53728  53.2190  29.9880 0001304  95.5581 264.5560 15.08839472189984
STARLINK-4651           
1 53729U 22107AF  26038.36248739  .00001828  00000+0  13291-3 0  9996
2 53729  53.2174  30.3749 0001596  85.7525 274.3649 15.08844962190001
STARLINK-4641           
1 53730U 22107AG  26038.35511836  .00000729  00000+0  63903-4 0  9993
2 53730  53.2187  30.3312 0001423  80.1795 279.9358 15.08840418189974
STARLINK-4636           
1 53731U 22107AH  26038.41004016  .00034904  00000+0  20935-2 0  9996
2 53731  53.2155  29.9635 0004319  60.6057 299.5367 15.10651191190019
STARLINK-4661           
1 53732U 22107AJ  26038.35976549  .00000207  00000+0  31076-4 0  9998
2 53732  53.2188  30.3571 0001568  87.8133 272.3039 15.08837177189975
STARLINK-4574           
1 53733U 22107AK  26038.24106477 -.00000084  00000+0  12837-4 0  9990
2 53733  53.2187  31.0368 0001535  90.9908 269.1260 15.08837379189981
STARLINK-4616           
1 53734U 22107AL  26038.29256468  .00000403  00000+0  43399-4 0  9993
2 53734  53.2180  30.6538 0001265  86.3894 273.7243 15.08839752189992
STARLINK-4618           
1 53735U 22107AM  26038.40201090  .00000535  00000+0  51689-4 0  9995
2 53735  53.2182  39.8986 0001464  86.0162 274.0997 15.08841953189872
STARLINK-4652           
1 53736U 22107AN  26038.36985555  .00000815  00000+0  69258-4 0  9998
2 53736  53.2186  30.4193 0001439  93.0773 267.0384 15.08843069190001
STARLINK-4646           
1 53737U 22107AP  26039.04429749  .02181456  45599-2  23779-2 0  9997
2 53737  53.1788 323.4139 0007711 172.4900 187.6253 16.10238777191154
STARLINK-4662           
1 53738U 22107AQ  26038.39832375  .00001164  00000+0  91267-4 0  9997
2 53738  53.2175  39.8776 0001088  88.4690 271.6427 15.08824669189874
STARLINK-4607           
1 53740U 22107AS  26038.27690063 -.00000075  00000+0  13375-4 0  9998
2 53740  53.2181  40.5446 0001528  76.9551 283.1612 15.08841852190008
STARLINK-4637           
1 53742U 22107AU  26038.28058523  .00000182  00000+0  29537-4 0  9995
2 53742  53.2185  40.5658 0001262 100.9157 259.1977 15.08839204190009
STARLINK-4645           
1 53743U 22107AV  26038.22908546  .00000266  00000+0  34813-4 0  9995
2 53743  53.2179  40.9517 0001416  96.4346 263.6807 15.08837026189999
STARLINK-4670           
1 53744U 22107AW  26038.97975296  .00000275  00000+0  35402-4 0  9999
2 53744  53.2179  37.1165 0001524  82.2956 277.8210 15.08838161190119
STARLINK-4656           
1 53745U 22107AX  26038.29901056 -.00000093  00000+0  12275-4 0  9990
2 53745  53.2182  40.6811 0001453  96.1394 263.9764 15.08838652190005
